{
  "type": "FeatureCollection",
  "features": [
    {
      "type": "Feature",
      "properties": {
        "norad_id": 40069,
        "name": "METEOR-M 2",
        "group": "weather",
        "lat": -57.486897825466386,
        "lon": 123.92077702595839,
        "alt_km": 824.347967531402,
        "timestamp": "2025-12-05T14:45:14.957498+00:00",
        "meta_object_name": "METEOR-M 2",
        "meta_object_id": "2014-037A",
        "meta_epoch": "2025-12-04T19:03:05.585760",
        "meta_mean_motion": 14.21381783,
        "meta_eccentricity": 0.0004734,
        "meta_inclination": 98.4894,
        "meta_ra_of_asc_node": 316.6833,
        "meta_arg_of_pericenter": 235.9996,
        "meta_mean_anomaly": 124.0732,
        "meta_ephemeris_type": 0,
        "meta_classification_type": "U",
        "meta_norad_cat_id": 40069,
        "meta_element_set_no": 999,
        "meta_rev_at_epoch": 59170,
        "meta_bstar": 0.00014795,
        "meta_mean_motion_dot": 2.81e-06,
        "meta_mean_motion_ddot": 0,
        "tle_line1": "1 40069U 14037A   25338.79381465  .00000281  00000+0  14795-3 0  9997",
        "tle_line2": "2 40069  98.4894 316.6833 0004734 235.9996 124.0732 14.21381783591703"
      },
      "geometry": {
        "type": "Point",
        "coordinates": [
          123.92077702595839,
          -57.486897825466386
        ]
      }
    },
    {
      "type": "Feature",
      "properties": {
        "norad_id": 40267,
        "name": "HIMAWARI-8",
        "group": "weather",
        "lat": -0.0035425185596105477,
        "lon": 76.64627725277211,
        "alt_km": 35791.52196709501,
        "timestamp": "2025-12-05T14:45:14.957510+00:00",
        "meta_object_name": "HIMAWARI-8",
        "meta_object_id": "2014-060A",
        "meta_epoch": "2025-12-04T14:23:45.762144",
        "meta_mean_motion": 1.00270217,
        "meta_eccentricity": 0.0001317,
        "meta_inclination": 0.0105,
        "meta_ra_of_asc_node": 98.274,
        "meta_arg_of_pericenter": 187.1183,
        "meta_mean_anomaly": 144.897,
        "meta_ephemeris_type": 0,
        "meta_classification_type": "U",
        "meta_norad_cat_id": 40267,
        "meta_element_set_no": 999,
        "meta_rev_at_epoch": 4080,
        "meta_bstar": 0,
        "meta_mean_motion_dot": -2.61e-06,
        "meta_mean_motion_ddot": 0,
        "tle_line1": "1 40267U 14060A   25338.59983521 -.00000261  00000+0  00000+0 0  9991",
        "tle_line2": "2 40267   0.0105  98.2740 0001317 187.1183 144.8970  1.00270217 40803"
      },
      "geometry": {
        "type": "Point",
        "coordinates": [
          76.64627725277211,
          -0.0035425185596105477
        ]
      }
    },
    {
      "type": "Feature",
      "properties": {
        "norad_id": 40367,
        "name": "FENGYUN 2G",
        "group": "weather",
        "lat": -3.250240612747072,
        "lon": 35.79793082032599,
        "alt_km": 35795.838352041246,
        "timestamp": "2025-12-05T14:45:14.957522+00:00",
        "meta_object_name": "FENGYUN 2G",
        "meta_object_id": "2014-090A",
        "meta_epoch": "2025-12-04T17:37:34.696704",
        "meta_mean_motion": 1.00266912,
        "meta_eccentricity": 0.0003143,
        "meta_inclination": 5.1466,
        "meta_ra_of_asc_node": 75.1906,
        "meta_arg_of_pericenter": 194.4854,
        "meta_mean_anomaly": 168.2191,
        "meta_ephemeris_type": 0,
        "meta_classification_type": "U",
        "meta_norad_cat_id": 40367,
        "meta_element_set_no": 999,
        "meta_rev_at_epoch": 4005,
        "meta_bstar": 0,
        "meta_mean_motion_dot": -2.91e-06,
        "meta_mean_motion_ddot": 0,
        "tle_line1": "1 40367U 14090A   25338.73442936 -.00000291  00000+0  00000+0 0  9994",
        "tle_line2": "2 40367   5.1466  75.1906 0003143 194.4854 168.2191  1.00266912 40052"
      },
      "geometry": {
        "type": "Point",
        "coordinates": [
          35.79793082032599,
          -3.250240612747072
        ]
      }
    },
    {
      "type": "Feature",
      "properties": {
        "norad_id": 40732,
        "name": "METEOSAT-11 (MSG-4)",
        "group": "weather",
        "lat": -2.1942732404084357,
        "lon": -54.63287377297296,
        "alt_km": 35790.03857394122,
        "timestamp": "2025-12-05T14:45:14.957535+00:00",
        "meta_object_name": "METEOSAT-11 (MSG-4)",
        "meta_object_id": "2015-034A",
        "meta_epoch": "2025-12-04T13:46:19.349184",
        "meta_mean_motion": 1.00264986,
        "meta_eccentricity": 0.000103,
        "meta_inclination": 2.715,
        "meta_ra_of_asc_node": 72.024,
        "meta_arg_of_pericenter": 117.8054,
        "meta_mean_anomaly": 99.8358,
        "meta_ephemeris_type": 0,
        "meta_classification_type": "U",
        "meta_norad_cat_id": 40732,
        "meta_element_set_no": 999,
        "meta_rev_at_epoch": 526,
        "meta_bstar": 0,
        "meta_mean_motion_dot": 7.5e-07,
        "meta_mean_motion_ddot": 0,
        "tle_line1": "1 40732U 15034A   25338.57383506  .00000075  00000+0  00000+0 0  9997",
        "tle_line2": "2 40732   2.7150  72.0240 0001030 117.8054  99.8358  1.00264986  5269"
      },
      "geometry": {
        "type": "Point",
        "coordinates": [
          -54.63287377297296,
          -2.1942732404084357
        ]
      }
    },
    {
      "type": "Feature",
      "properties": {
        "norad_id": 41105,
        "name": "ELEKTRO-L 2",
        "group": "weather",
        "lat": -2.984057135288847,
        "lon": -78.69068574085772,
        "alt_km": 35770.353333563406,
        "timestamp": "2025-12-05T14:45:14.957546+00:00",
        "meta_object_name": "ELEKTRO-L 2",
        "meta_object_id": "2015-074A",
        "meta_epoch": "2025-12-04T01:40:17.137056",
        "meta_mean_motion": 1.00269777,
        "meta_eccentricity": 0.00040203,
        "meta_inclination": 6.2023,
        "meta_ra_of_asc_node": 72.9293,
        "meta_arg_of_pericenter": 197.7104,
        "meta_mean_anomaly": 173.0548,
        "meta_ephemeris_type": 0,
        "meta_classification_type": "U",
        "meta_norad_cat_id": 41105,
        "meta_element_set_no": 999,
        "meta_rev_at_epoch": 3655,
        "meta_bstar": 0,
        "meta_mean_motion_dot": -1.05e-06,
        "meta_mean_motion_ddot": 0,
        "tle_line1": "1 41105U 15074A   25338.06964279 -.00000105  00000+0  00000+0 0  9997",
        "tle_line2": "2 41105   6.2023  72.9293 0004020 197.7104 173.0548  1.00269777 36559"
      },
      "geometry": {
        "type": "Point",
        "coordinates": [
          -78.69068574085772,
          -2.984057135288847
        ]
      }
    },
    {
      "type": "Feature",
      "properties": {
        "norad_id": 41752,
        "name": "INSAT-3DR",
        "group": "weather",
        "lat": -0.04810690635329435,
        "lon": 10.148291894837278,
        "alt_km": 35798.42805315901,
        "timestamp": "2025-12-05T14:45:14.957558+00:00",
        "meta_object_name": "INSAT-3DR",
        "meta_object_id": "2016-054A",
        "meta_epoch": "2025-12-04T14:04:47.577792",
        "meta_mean_motion": 1.00269621,
        "meta_eccentricity": 0.0014527,
        "meta_inclination": 0.0713,
        "meta_ra_of_asc_node": 88.5764,
        "meta_arg_of_pericenter": 180.632,
        "meta_mean_anomaly": 89.672,
        "meta_ephemeris_type": 0,
        "meta_classification_type": "U",
        "meta_norad_cat_id": 41752,
        "meta_element_set_no": 999,
        "meta_rev_at_epoch": 3386,
        "meta_bstar": 0,
        "meta_mean_motion_dot": -6.2e-07,
        "meta_mean_motion_ddot": 0,
        "tle_line1": "1 41752U 16054A   25338.58666178 -.00000062  00000+0  00000+0 0  9990",
        "tle_line2": "2 41752   0.0713  88.5764 0014527 180.6320  89.6720  1.00269621 33868"
      },
      "geometry": {
        "type": "Point",
        "coordinates": [
          10.148291894837278,
          -0.04810690635329435
        ]
      }
    },
    {
      "type": "Feature",
      "properties": {
        "norad_id": 41836,
        "name": "HIMAWARI-9",
        "group": "weather",
        "lat": 0.041900448529011404,
        "lon": 76.70832554386061,
        "alt_km": 35794.57574676252,
        "timestamp": "2025-12-05T14:45:14.957570+00:00",
        "meta_object_name": "HIMAWARI-9",
        "meta_object_id": "2016-064A",
        "meta_epoch": "2025-12-04T14:23:45.762144",
        "meta_mean_motion": 1.00266965,
        "meta_eccentricity": 0.0002499,
        "meta_inclination": 0.0187,
        "meta_ra_of_asc_node": 359.6866,
        "meta_arg_of_pericenter": 305.2934,
        "meta_mean_anomaly": 125.3693,
        "meta_ephemeris_type": 0,
        "meta_classification_type": "U",
        "meta_norad_cat_id": 41836,
        "meta_element_set_no": 999,
        "meta_rev_at_epoch": 3325,
        "meta_bstar": 0,
        "meta_mean_motion_dot": 0,
        "meta_mean_motion_ddot": 0,
        "tle_line1": "1 41836U 16064A   25338.59983521  .00000000  00000+0  00000+0 0  9990",
        "tle_line2": "2 41836   0.0187 359.6866 0002499 305.2934 125.3693  1.00266965 33250"
      },
      "geometry": {
        "type": "Point",
        "coordinates": [
          76.70832554386061,
          0.041900448529011404
        ]
      }
    }
  ]
}